{"type": "FeatureCollection", "features": [ {"type": "Feature", "properties": {"norad_id": 37968, "name": "COSMOS 2251 DEB", "group": "cosmos-2251-debris", "lat": -10.037838501190404, "lon": 74.69106687291179, "alt_km": 623.9114469771794, "timestamp": "2025-12-22T05:49:03.899183+00:00", "meta": {"OBJECT_NAME": "COSMOS 2251 DEB", "OBJECT_ID": "1993-036BPT", "EPOCH": "2025-12-21T00:10:33.901248", "MEAN_MOTION": 15.00806785, "ECCENTRICITY": 0.00805513, "INCLINATION": 74.0006, "RA_OF_ASC_NODE": 254.2977, "ARG_OF_PERICENTER": 7.8808, "MEAN_ANOMALY": 352.3622, "EPHEMERIS_TYPE": 0, "CLASSIFICATION_TYPE": "U", "NORAD_CAT_ID": 37968, "ELEMENT_SET_NO": 999, "REV_AT_EPOCH": 60343, "BSTAR": 0.00064941669, "MEAN_MOTION_DOT": 8.807e-05, "MEAN_MOTION_DDOT": 0}, "tle": {"line1": "1 37968U 93036BPT 25355.00733682  .00008807  00000+0  64942-3 0  9993", "line2": "2 37968  74.0006 254.2977 0080551   7.8808 352.3622 15.00806785603437"}}, "geometry": {"type": "Point", "coordinates": [74.69106687291179, -10.037838501190404]}}, {"type": "Feature", "properties": {"norad_id": 37971, "name": "COSMOS 2251 DEB", "group": "cosmos-2251-debris", "lat": 47.51548844188869, "lon": -174.38327886622105, "alt_km": 684.9462543116306, "timestamp": "2025-12-22T05:49:03.899195+00:00", "meta": {"OBJECT_NAME": "COSMOS 2251 DEB", "OBJECT_ID": "1993-036BPW", "EPOCH": "2025-12-21T19:16:34.897152", "MEAN_MOTION": 14.48757325, "ECCENTRICITY": 0.0065941, "INCLINATION": 73.9924, "RA_OF_ASC_NODE": 24.7096, "ARG_OF_PERICENTER": 161.9609, "MEAN_ANOMALY": 198.3914, "EPHEMERIS_TYPE": 0, "CLASSIFICATION_TYPE": "U", "NORAD_CAT_ID": 37971, "ELEMENT_SET_NO": 999, "REV_AT_EPOCH": 60809, "BSTAR": 0.0013046, "MEAN_MOTION_DOT": 5.035e-05, "MEAN_MOTION_DDOT": 0}, "tle": {"line1": "1 37971U 93036BPW 25355.80318168  .00005035  00000+0  13046-2 0  9991", "line2": "2 37971  73.9924  24.7096 0065941 161.9609 198.3914 14.48757325608092"}}, "geometry": {"type": "Point", "coordinates": [-174.38327886622105, 47.51548844188869]}}, {"type": "Feature", "properties": {"norad_id": 37975, "name": "COSMOS 2251 DEB", "group": "cosmos-2251-debris", "lat": -56.52980963774962, "lon": 151.13845369470312, "alt_km": 606.009047021048, "timestamp": "2025-12-22T05:49:03.899205+00:00", "meta": {"OBJECT_NAME": "COSMOS 2251 DEB", "OBJECT_ID": "1993-036BQA", "EPOCH": "2025-12-18T06:24:18.775872", "MEAN_MOTION": 14.76341165, "ECCENTRICITY": 0.00951612, "INCLINATION": 74.0019, "RA_OF_ASC_NODE": 313.2207, "ARG_OF_PERICENTER": 301.4276, "MEAN_ANOMALY": 57.7618, "EPHEMERIS_TYPE": 0, "CLASSIFICATION_TYPE": "U", "NORAD_CAT_ID": 37975, "ELEMENT_SET_NO": 999, "REV_AT_EPOCH": 69827, "BSTAR": 0.0032629501, "MEAN_MOTION_DOT": 0.00024448, "MEAN_MOTION_DDOT": 0}, "tle": {"line1": "1 37975U 93036BQA 25352.26688398  .00024448  00000+0  32630-2 0  9996", "line2": "2 37975  74.0019 313.2207 0095161 301.4276  57.7618 14.76341165698271"}}, "geometry": {"type": "Point", "coordinates": [151.13845369470312, -56.52980963774962]}}, {"type": "Feature", "properties": {"norad_id": 37985, "name": "COSMOS 2251 DEB", "group": "cosmos-2251-debris", "lat": -7.030053766623517, "lon": -113.72598226558071, "alt_km": 762.4621736121508, "timestamp": "2025-12-22T05:49:03.899215+00:00", "meta": {"OBJECT_NAME": "COSMOS 2251 DEB", "OBJECT_ID": "1993-036BQL", "EPOCH": "2025-12-17T23:49:27.671232", "MEAN_MOTION": 14.35484605, "ECCENTRICITY": 0.00210144, "INCLINATION": 74.0252, "RA_OF_ASC_NODE": 256.0955, "ARG_OF_PERICENTER": 17.3481, "MEAN_ANOMALY": 342.8385, "EPHEMERIS_TYPE": 0, "CLASSIFICATION_TYPE": "U", "NORAD_CAT_ID": 37985, "ELEMENT_SET_NO": 999, "REV_AT_EPOCH": 64992, "BSTAR": 4.3734025e-05, "MEAN_MOTION_DOT": 1e-06, "MEAN_MOTION_DDOT": 0}, "tle": {"line1": "1 37985U 93036BQL 25351.99268138  .00000100  00000+0  43734-4 0  9990", "line2": "2 37985  74.0252 256.0955 0021014  17.3481 342.8385 14.35484605649921"}}, "geometry": {"type": "Point", "coordinates": [-113.72598226558071, -7.030053766623517]}}, {"type": "Feature", "properties": {"norad_id": 37988, "name": "COSMOS 2251 DEB", "group": "cosmos-2251-debris", "lat": 53.42721129651095, "lon": 28.315436083308892, "alt_km": 616.0864329573242, "timestamp": "2025-12-22T05:49:03.899225+00:00", "meta": {"OBJECT_NAME": "COSMOS 2251 DEB", "OBJECT_ID": "1993-036BQP", "EPOCH": "2025-12-19T02:22:34.688640", "MEAN_MOTION": 14.6891967, "ECCENTRICITY": 0.00635463, "INCLINATION": 74.062, "RA_OF_ASC_NODE": 11.7337, "ARG_OF_PERICENTER": 47.3595, "MEAN_ANOMALY": 313.2907, "EPHEMERIS_TYPE": 0, "CLASSIFICATION_TYPE": "U", "NORAD_CAT_ID": 37988, "ELEMENT_SET_NO": 999, "REV_AT_EPOCH": 23489, "BSTAR": 0.00064166354, "MEAN_MOTION_DOT": 3.842e-05, "MEAN_MOTION_DDOT": 0}, "tle": {"line1": "1 37988U 93036BQP 25353.09901260  .00003842  00000+0  64166-3 0  9993", "line2": "2 37988  74.0620  11.7337 0063546  47.3595 313.2907 14.68919670234897"}}, "geometry": {"type": "Point", "coordinates": [28.315436083308892, 53.42721129651095]}}, {"type": "Feature", "properties": {"norad_id": 37993, "name": "COSMOS 2251 DEB", "group": "cosmos-2251-debris", "lat": -63.64231773277308, "lon": 4.100903560166716, "alt_km": 684.8881004320529, "timestamp": "2025-12-22T05:49:03.899235+00:00", "meta": {"OBJECT_NAME": "COSMOS 2251 DEB", "OBJECT_ID": "1993-036BQU", "EPOCH": "2025-12-17T04:37:52.855104", "MEAN_MOTION": 14.59966404, "ECCENTRICITY": 0.00218755, "INCLINATION": 74.021, "RA_OF_ASC_NODE": 158.4097, "ARG_OF_PERICENTER": 246.7183, "MEAN_ANOMALY": 113.168, "EPHEMERIS_TYPE": 0, "CLASSIFICATION_TYPE": "U", "NORAD_CAT_ID": 37993, "ELEMENT_SET_NO": 999, "REV_AT_EPOCH": 65382, "BSTAR": 0.0010496489, "MEAN_MOTION_DOT": 5.024e-05, "MEAN_MOTION_DDOT": 0}, "tle": {"line1": "1 37993U 93036BQU 25351.19297286  .00005024  00000+0  10496-2 0  9994", "line2": "2 37993  74.0210 158.4097 0021875 246.7183 113.1680 14.59966404653827"}}, "geometry": {"type": "Point", "coordinates": [4.100903560166716, -63.64231773277308]}}, {"type": "Feature", "properties": {"norad_id": 37994, "name": "COSMOS 2251 DEB", "group": "cosmos-2251-debris", "lat": 1.0979654045954828, "lon": -101.54420949606335, "alt_km": 747.1215701997398, "timestamp": "2025-12-22T05:49:03.899245+00:00", "meta": {"OBJECT_NAME": "COSMOS 2251 DEB", "OBJECT_ID": "1993-036BQV", "EPOCH": "2025-12-21T19:48:21.517920", "MEAN_MOTION": 14.39641983, "ECCENTRICITY": 0.0023288, "INCLINATION": 74.036, "RA_OF_ASC_NODE": 258.9115, "ARG_OF_PERICENTER": 336.7579, "MEAN_ANOMALY": 23.252, "EPHEMERIS_TYPE": 0, "CLASSIFICATION_TYPE": "U", "NORAD_CAT_ID": 37994, "ELEMENT_SET_NO": 999, "REV_AT_EPOCH": 77195, "BSTAR": 0.00025804, "MEAN_MOTION_DOT": 7.83e-06, "MEAN_MOTION_DDOT": 0}, "tle": {"line1": "1 37994U 93036BQV 25355.82524905  .00000783  00000+0  25804-3 0  9997", "line2": "2 37994  74.0360 258.9115 0023288 336.7579  23.2520 14.39641983771959"}}, "geometry": {"type": "Point", "coordinates": [-101.54420949606335, 1.0979654045954828]}}, {"type": "Feature", "properties": {"norad_id": 37998, "name": "COSMOS 2251 DEB", "group": "cosmos-2251-debris", "lat": 68.93265100969899, "lon": -10.61317299026736, "alt_km": 747.6594564707257, "timestamp": "2025-12-22T05:49:03.899255+00:00", "meta": {"OBJECT_NAME": "COSMOS 2251 DEB", "OBJECT_ID": "1993-036BQZ", "EPOCH": "2025-12-19T00:55:56.823168", "MEAN_MOTION": 14.45502343, "ECCENTRICITY": 0.00202427, "INCLINATION": 74.0345, "RA_OF_ASC_NODE": 223.3597, "ARG_OF_PERICENTER": 295.5973, "MEAN_ANOMALY": 64.3093, "EPHEMERIS_TYPE": 0, "CLASSIFICATION_TYPE": "U", "NORAD_CAT_ID": 37998, "ELEMENT_SET_NO": 999, "REV_AT_EPOCH": 64378, "BSTAR": 0.00035299512, "MEAN_MOTION_DOT": 1.221e-05, "MEAN_MOTION_DDOT": 0}, "tle": {"line1": "1 37998U 93036BQZ 25353.03885212  .00001221  00000+0  35300-3 0  9993", "line2": "2 37998  74.0345 223.3597 0020242 295.5973  64.3093 14.45502343643786"}}, "geometry": {"type": "Point", "coordinates": [-10.61317299026736, 68.93265100969899]}}, {"type": "Feature", "properties": {"norad_id": 38001, "name": "COSMOS 2251 DEB", "group": "cosmos-2251-debris", "lat": 47.12458808327544, "lon": -84.40223325695011, "alt_km": 657.391450125936, "timestamp": "2025-12-22T05:49:03.899265+00:00", "meta": {"OBJECT_NAME": "COSMOS 2251 DEB", "OBJECT_ID": "1993-036BRC", "EPOCH": "2025-12-21T14:42:05.527008", "MEAN_MOTION": 14.79169342, "ECCENTRICITY": 0.0065464, "INCLINATION": 74.003, "RA_OF_ASC_NODE": 114.837, "ARG_OF_PERICENTER": 262.704, "MEAN_ANOMALY": 115.5941, "EPHEMERIS_TYPE": 0, "CLASSIFICATION_TYPE": "U", "NORAD_CAT_ID": 38001, "ELEMENT_SET_NO": 999, "REV_AT_EPOCH": 74839, "BSTAR": 0.00066333, "MEAN_MOTION_DOT": 5.068e-05, "MEAN_MOTION_DDOT": 0}, "tle": {"line1": "1 38001U 93036BRC 25355.61256397  .00005068  00000+0  66333-3 0  9994", "line2": "2 38001  74.0030 114.8370 0065464 262.7040 115.5941 14.79169342748391"}}, "geometry": {"type": "Point", "coordinates": [-84.40223325695011, 47.12458808327544]}}, {"type": "Feature", "properties": {"norad_id": 38006, "name": "COSMOS 2251 DEB", "group": "cosmos-2251-debris", "lat": -69.06442621370844, "lon": -28.97767878325711, "alt_km": 703.0812160194155, "timestamp": "2025-12-22T05:49:03.899275+00:00", "meta": {"OBJECT_NAME": "COSMOS 2251 DEB", "OBJECT_ID": "1993-036BRH", "EPOCH": "2025-12-10T03:36:37.956384", "MEAN_MOTION": 14.45867865, "ECCENTRICITY": 0.00758537, "INCLINATION": 73.8744, "RA_OF_ASC_NODE": 42.933, "ARG_OF_PERICENTER": 348.3853, "MEAN_ANOMALY": 11.555, "EPHEMERIS_TYPE": 0, "CLASSIFICATION_TYPE": "U", "NORAD_CAT_ID": 38006, "ELEMENT_SET_NO": 999, "REV_AT_EPOCH": 62922, "BSTAR": 0.0047338847, "MEAN_MOTION_DOT": 0.00017443, "MEAN_MOTION_DDOT": 0}, "tle": {"line1": "1 38006U 93036BRH 25344.15043931  .00017443  00000+0  47339-2 0  9998", "line2": "2 38006  73.8744  42.9330 0075853 348.3853  11.5550 14.45867865629227"}}, "geometry": {"type": "Point", "coordinates": [-28.97767878325711, -69.06442621370844]}}]}